{"type": "FeatureCollection", "features": [ {"type": "Feature", "properties": {"norad_id": 39546, "name": "COSMOS 2251 DEB", "group": "cosmos-2251-debris", "lat": 34.70770865154748, "lon": 135.07598574397792, "alt_km": 600.8163044489111, "timestamp": "2025-12-19T06:59:44.305015+00:00", "meta": {"OBJECT_NAME": "COSMOS 2251 DEB", "OBJECT_ID": "1993-036BUC", "EPOCH": "2025-12-16T03:12:27.285696", "MEAN_MOTION": 14.92150087, "ECCENTRICITY": 0.00441533, "INCLINATION": 73.9967, "RA_OF_ASC_NODE": 129.9626, "ARG_OF_PERICENTER": 289.5542, "MEAN_ANOMALY": 70.0875, "EPHEMERIS_TYPE": 0, "CLASSIFICATION_TYPE": "U", "NORAD_CAT_ID": 39546, "ELEMENT_SET_NO": 999, "REV_AT_EPOCH": 64487, "BSTAR": 0.001062699, "MEAN_MOTION_DOT": 0.00010998, "MEAN_MOTION_DDOT": 0}, "tle": {"line1": "1 39546U 93036BUC 25350.13364914  .00010998  00000+0  10627-2 0  9998", "line2": "2 39546  73.9967 129.9626 0044153 289.5542  70.0875 14.92150087644870"}}, "geometry": {"type": "Point", "coordinates": [135.07598574397792, 34.70770865154748]}}, {"type": "Feature", "properties": {"norad_id": 39547, "name": "COSMOS 2251 DEB", "group": "cosmos-2251-debris", "lat": -61.57876065508341, "lon": -27.0496719253868, "alt_km": 560.9047759004316, "timestamp": "2025-12-19T06:59:44.305025+00:00", "meta": {"OBJECT_NAME": "COSMOS 2251 DEB", "OBJECT_ID": "1993-036BUD", "EPOCH": "2025-12-16T19:23:25.702368", "MEAN_MOTION": 15.03569393, "ECCENTRICITY": 0.00056026, "INCLINATION": 74.0017, "RA_OF_ASC_NODE": 10.0509, "ARG_OF_PERICENTER": 8.7328, "MEAN_ANOMALY": 167.2284, "EPHEMERIS_TYPE": 0, "CLASSIFICATION_TYPE": "U", "NORAD_CAT_ID": 39547, "ELEMENT_SET_NO": 999, "REV_AT_EPOCH": 64086, "BSTAR": 0.0020053812, "MEAN_MOTION_DOT": 0.00027477, "MEAN_MOTION_DDOT": 0}, "tle": {"line1": "1 39547U 93036BUD 25350.80793637  .00027477  00000+0  20054-2 0  9996", "line2": "2 39547  74.0017  10.0509 0005602   8.7328 167.2284 15.03569393640863"}}, "geometry": {"type": "Point", "coordinates": [-27.0496719253868, -61.57876065508341]}}, {"type": "Feature", "properties": {"norad_id": 39553, "name": "COSMOS 2251 DEB", "group": "cosmos-2251-debris", "lat": -2.515341801666465, "lon": 139.3981135318664, "alt_km": 892.1952182264804, "timestamp": "2025-12-19T06:59:44.305035+00:00", "meta": {"OBJECT_NAME": "COSMOS 2251 DEB", "OBJECT_ID": "1993-036BUK", "EPOCH": "2025-12-07T06:00:50.455872", "MEAN_MOTION": 13.99876591, "ECCENTRICITY": 0.02014092, "INCLINATION": 74.0304, "RA_OF_ASC_NODE": 339.5232, "ARG_OF_PERICENTER": 116.8065, "MEAN_ANOMALY": 245.3825, "EPHEMERIS_TYPE": 0, "CLASSIFICATION_TYPE": "U", "NORAD_CAT_ID": 39553, "ELEMENT_SET_NO": 999, "REV_AT_EPOCH": 75540, "BSTAR": 0.00088887208, "MEAN_MOTION_DOT": 1.532e-05, "MEAN_MOTION_DDOT": 0}, "tle": {"line1": "1 39553U 93036BUK 25341.25058398  .00001532  00000+0  88887-3 0  9993", "line2": "2 39553  74.0304 339.5232 0201409 116.8065 245.3825 13.99876591755403"}}, "geometry": {"type": "Point", "coordinates": [139.3981135318664, -2.515341801666465]}}, {"type": "Feature", "properties": {"norad_id": 39554, "name": "COSMOS 2251 DEB", "group": "cosmos-2251-debris", "lat": -50.91115608756373, "lon": -129.59965973791097, "alt_km": 538.7103148456645, "timestamp": "2025-12-19T06:59:44.305046+00:00", "meta": {"OBJECT_NAME": "COSMOS 2251 DEB", "OBJECT_ID": "1993-036BUL", "EPOCH": "2025-12-10T06:12:03.924864", "MEAN_MOTION": 15.10130993, "ECCENTRICITY": 0.0002993, "INCLINATION": 74.0187, "RA_OF_ASC_NODE": 269.7383, "ARG_OF_PERICENTER": 74.7531, "MEAN_ANOMALY": 81.5927, "EPHEMERIS_TYPE": 0, "CLASSIFICATION_TYPE": "U", "NORAD_CAT_ID": 39554, "ELEMENT_SET_NO": 999, "REV_AT_EPOCH": 64347, "BSTAR": 0.0046896, "MEAN_MOTION_DOT": 0.000773, "MEAN_MOTION_DDOT": 0}, "tle": {"line1": "1 39554U 93036BUL 25344.25837876  .00077300  00000+0  46896-2 0  9992", "line2": "2 39554  74.0187 269.7383 0002993  74.7531  81.5927 15.10130993643471"}}, "geometry": {"type": "Point", "coordinates": [-129.59965973791097, -50.91115608756373]}}, {"type": "Feature", "properties": {"norad_id": 39583, "name": "COSMOS 2251 DEB", "group": "cosmos-2251-debris", "lat": -52.19594972388775, "lon": 76.43970447435339, "alt_km": 732.219777418798, "timestamp": "2025-12-19T06:59:44.305056+00:00", "meta": {"OBJECT_NAME": "COSMOS 2251 DEB", "OBJECT_ID": "1993-036BUN", "EPOCH": "2025-12-18T10:11:13.909920", "MEAN_MOTION": 14.60542257, "ECCENTRICITY": 0.01369227, "INCLINATION": 73.9324, "RA_OF_ASC_NODE": 236.2973, "ARG_OF_PERICENTER": 348.5451, "MEAN_ANOMALY": 11.2605, "EPHEMERIS_TYPE": 0, "CLASSIFICATION_TYPE": "U", "NORAD_CAT_ID": 39583, "ELEMENT_SET_NO": 999, "REV_AT_EPOCH": 61862, "BSTAR": 0.001412125, "MEAN_MOTION_DOT": 7.803e-05, "MEAN_MOTION_DDOT": 0}, "tle": {"line1": "1 39583U 93036BUN 25352.42446655  .00007803  00000+0  14121-2 0  9990", "line2": "2 39583  73.9324 236.2973 0136922 348.5451  11.2605 14.60542257618627"}}, "geometry": {"type": "Point", "coordinates": [76.43970447435339, -52.19594972388775]}}, {"type": "Feature", "properties": {"norad_id": 39585, "name": "COSMOS 2251 DEB", "group": "cosmos-2251-debris", "lat": 17.547263024355097, "lon": -65.9633720348039, "alt_km": 657.0901565946024, "timestamp": "2025-12-19T06:59:44.305066+00:00", "meta": {"OBJECT_NAME": "COSMOS 2251 DEB", "OBJECT_ID": "1993-036BUQ", "EPOCH": "2025-12-17T13:45:47.587680", "MEAN_MOTION": 14.58681164, "ECCENTRICITY": 0.00655713, "INCLINATION": 74.0421, "RA_OF_ASC_NODE": 292.1145, "ARG_OF_PERICENTER": 51.6529, "MEAN_ANOMALY": 309.0503, "EPHEMERIS_TYPE": 0, "CLASSIFICATION_TYPE": "U", "NORAD_CAT_ID": 39585, "ELEMENT_SET_NO": 999, "REV_AT_EPOCH": 62591, "BSTAR": 0.00024435975, "MEAN_MOTION_DOT": 1.143e-05, "MEAN_MOTION_DDOT": 0}, "tle": {"line1": "1 39585U 93036BUQ 25351.57346745  .00001143  00000+0  24436-3 0  9998", "line2": "2 39585  74.0421 292.1145 0065571  51.6529 309.0503 14.58681164625913"}}, "geometry": {"type": "Point", "coordinates": [-65.9633720348039, 17.547263024355097]}}, {"type": "Feature", "properties": {"norad_id": 39586, "name": "COSMOS 2251 DEB", "group": "cosmos-2251-debris", "lat": 11.319937347992271, "lon": -140.2219300797708, "alt_km": 754.8809757036788, "timestamp": "2025-12-19T06:59:44.305078+00:00", "meta": {"OBJECT_NAME": "COSMOS 2251 DEB", "OBJECT_ID": "1993-036BUR", "EPOCH": "2025-12-15T23:50:08.053728", "MEAN_MOTION": 14.21232237, "ECCENTRICITY": 0.01008868, "INCLINATION": 74.0082, "RA_OF_ASC_NODE": 222.4068, "ARG_OF_PERICENTER": 356.2296, "MEAN_ANOMALY": 66.1426, "EPHEMERIS_TYPE": 0, "CLASSIFICATION_TYPE": "U", "NORAD_CAT_ID": 39586, "ELEMENT_SET_NO": 999, "REV_AT_EPOCH": 61018, "BSTAR": 0.00043436803, "MEAN_MOTION_DOT": 9.7e-06, "MEAN_MOTION_DDOT": 0}, "tle": {"line1": "1 39586U 93036BUR 25349.99314877  .00000970  00000+0  43437-3 0  9992", "line2": "2 39586  74.0082 222.4068 0100886 356.2296  66.1426 14.21232237610182"}}, "geometry": {"type": "Point", "coordinates": [-140.2219300797708, 11.319937347992271]}}, {"type": "Feature", "properties": {"norad_id": 39591, "name": "COSMOS 2251 DEB", "group": "cosmos-2251-debris", "lat": 24.22279674025484, "lon": -117.98037501882318, "alt_km": 735.3251430701193, "timestamp": "2025-12-19T06:59:44.305088+00:00", "meta": {"OBJECT_NAME": "COSMOS 2251 DEB", "OBJECT_ID": "1993-036BUW", "EPOCH": "2025-12-16T09:29:52.077696", "MEAN_MOTION": 14.41820254, "ECCENTRICITY": 0.00293402, "INCLINATION": 74.0195, "RA_OF_ASC_NODE": 239.9819, "ARG_OF_PERICENTER": 351.9652, "MEAN_ANOMALY": 128.7206, "EPHEMERIS_TYPE": 0, "CLASSIFICATION_TYPE": "U", "NORAD_CAT_ID": 39591, "ELEMENT_SET_NO": 999, "REV_AT_EPOCH": 61829, "BSTAR": 0.00026614281, "MEAN_MOTION_DOT": 8.48e-06, "MEAN_MOTION_DDOT": 0}, "tle": {"line1": "1 39591U 93036BUW 25350.39574164  .00000848  00000+0  26614-3 0  9993", "line2": "2 39591  74.0195 239.9819 0029340 351.9652 128.7206 14.41820254618298"}}, "geometry": {"type": "Point", "coordinates": [-117.98037501882318, 24.22279674025484]}}, {"type": "Feature", "properties": {"norad_id": 40218, "name": "COSMOS 2251 DEB", "group": "cosmos-2251-debris", "lat": -73.52203876036661, "lon": 161.19172549719156, "alt_km": 751.5238868926263, "timestamp": "2025-12-19T06:59:44.305100+00:00", "meta": {"OBJECT_NAME": "COSMOS 2251 DEB", "OBJECT_ID": "1993-036BUX", "EPOCH": "2025-12-14T10:48:31.251744", "MEAN_MOTION": 14.41597705, "ECCENTRICITY": 0.00168728, "INCLINATION": 74.0298, "RA_OF_ASC_NODE": 245.6562, "ARG_OF_PERICENTER": 328.6, "MEAN_ANOMALY": 31.4147, "EPHEMERIS_TYPE": 0, "CLASSIFICATION_TYPE": "U", "NORAD_CAT_ID": 40218, "ELEMENT_SET_NO": 999, "REV_AT_EPOCH": 58886, "BSTAR": 0.00046023204, "MEAN_MOTION_DOT": 1.474e-05, "MEAN_MOTION_DDOT": 0}, "tle": {"line1": "1 40218U 93036BUX 25348.45036171  .00001474  00000+0  46023-3 0  9998", "line2": "2 40218  74.0298 245.6562 0016872 328.6000  31.4147 14.41597705588868"}}, "geometry": {"type": "Point", "coordinates": [161.19172549719156, -73.52203876036661]}}, {"type": "Feature", "properties": {"norad_id": 40223, "name": "COSMOS 2251 DEB", "group": "cosmos-2251-debris", "lat": -73.6065471987695, "lon": -3.1173053154156887, "alt_km": 550.2416791707055, "timestamp": "2025-12-19T06:59:44.305111+00:00", "meta": {"OBJECT_NAME": "COSMOS 2251 DEB", "OBJECT_ID": "1993-036BVC", "EPOCH": "2025-12-16T06:05:42.901728", "MEAN_MOTION": 15.04017245, "ECCENTRICITY": 0.00151313, "INCLINATION": 73.9375, "RA_OF_ASC_NODE": 81.4737, "ARG_OF_PERICENTER": 287.2028, "MEAN_ANOMALY": 105.0934, "EPHEMERIS_TYPE": 0, "CLASSIFICATION_TYPE": "U", "NORAD_CAT_ID": 40223, "ELEMENT_SET_NO": 999, "REV_AT_EPOCH": 59427, "BSTAR": 0.0031787319, "MEAN_MOTION_DOT": 0.00044299, "MEAN_MOTION_DDOT": 0}, "tle": {"line1": "1 40223U 93036BVC 25350.25396877  .00044299  00000+0  31787-2 0  9999", "line2": "2 40223  73.9375  81.4737 0015131 287.2028 105.0934 15.04017245594275"}}, "geometry": {"type": "Point", "coordinates": [-3.1173053154156887, -73.6065471987695]}}]}